ADDRESS,CERT,CITY,COUNTY,NAME,OFFNAME,SERVTYPE,STALP,STCNTY,STNAME,ZIP,full_address,missed_address,lat,long
5129 Market St,57957,Philadelphia,Philadelphia,"Citizens Bank, National Association",52ND STREET BRANCH,11,PA,42101,Pennsylvania,19139,"5129 Market St, Philadelphia, PA 19139",False,39.960143,-75.224474
2201 S Broad St,18409,Philadelphia,Philadelphia,"TD Bank, National Association",SOUTH BROAD BRANCH,11,PA,42101,Pennsylvania,19148,"2201 S Broad St, Philadelphia, PA 19148",False,39.922774,-75.169608
1950 S Columbus Blvd,3510,Philadelphia,Philadelphia,"Bank of America, National Association",COLUMBUS COMMONS BRANCH,11,PA,42101,Pennsylvania,19148,"1950 S Columbus Blvd, Philadelphia, PA 19148",False,39.921167,-75.142382
4020 City Line Ave,18409,Philadelphia,Philadelphia,"TD Bank, National Association",CITY AVENUE BRANCH,11,PA,42101,Pennsylvania,19131,"4020 City Line Ave, Philadelphia, PA 19131",False,40.00774,-75.211802
1536 S Broad St,7759,Philadelphia,Philadelphia,Univest  Bank and Trust Co.,SOUTH PHILADELPHIA BRANCH,11,PA,42101,Pennsylvania,19146,"1536 S Broad St, Philadelphia, PA 19146",False,39.930723,-75.168607
"117-21 Spring Garden Street, Suite A",35497,Philadelphia,Philadelphia,Quaint Oak Bank,Philadelphia Branch Office,11,PA,42101,Pennsylvania,19123,"117-21 Spring Garden Street, Suite A, Philadelphia, PA 19123",False,39.960815,-75.13958
1839 Chestnut St,58513,Philadelphia,Philadelphia,The Bank of Princeton,The Bank of Princeton Chestnut Street Branch,11,PA,42101,Pennsylvania,19103,"1839 Chestnut St, Philadelphia, PA 19103",False,39.952074,-75.171732
2520 Grant Ave,18409,Philadelphia,Philadelphia,"TD Bank, National Association",ROOSEVELT BOULEVARD BRANCH,11,PA,42101,Pennsylvania,19114,"2520 Grant Ave, Philadelphia, PA 19114",False,40.080038,-75.028073
3930 Woodhaven Rd,18409,Philadelphia,Philadelphia,"TD Bank, National Association",WOODHAVEN ROAD BRANCH,11,PA,42101,Pennsylvania,19154,"3930 Woodhaven Rd, Philadelphia, PA 19154",False,40.086611,-74.972593
8600 Germantown Ave,18409,Philadelphia,Philadelphia,"TD Bank, National Association",CHESTNUT HILL BRANCH,11,PA,42101,Pennsylvania,19118,"8600 Germantown Ave, Philadelphia, PA 19118",False,40.076554,-75.207796
400 Market St,6384,Philadelphia,Philadelphia,"PNC Bank, National Association",INDEPENDENCE BRANCH,11,PA,42101,Pennsylvania,19106,"400 Market St, Philadelphia, PA 19106",False,39.950626,-75.146744
601 Chestnut St,3511,Philadelphia,Philadelphia,"Wells Fargo Bank, National Association",INDEPENDENCE HALL BRANCH,11,PA,42101,Pennsylvania,19106,"601 Chestnut St, Philadelphia, PA 19106",False,39.949465,-75.150916
900 Walnut St,6384,Philadelphia,Philadelphia,"PNC Bank, National Association",NINTH & WALNUT BRANCH,11,PA,42101,Pennsylvania,19107,"900 Walnut St, Philadelphia, PA 19107",False,39.947992,-75.156153
1101 Market St,29950,Philadelphia,Philadelphia,"Santander Bank, N.A.",ONE READING CENTER BRANCH,11,PA,42101,Pennsylvania,19107,"1101 Market St, Philadelphia, PA 19107",False,39.952059,-75.15853
912 W Beacon St,12204,Philadelphia,Neshoba,"The Citizens Bank of Philadelphia, Mississippi",WEST SIDE DRIVE-IN BRANCH,11,MS,28099,Mississippi,39350,"912 W Beacon St, Philadelphia, MS 39350",False,32.770937,-89.125981
6401 Woodland Ave,17838,Philadelphia,Philadelphia,"Wilmington Savings Fund Society, FSB",WOODLAND AVENUE BRANCH,11,PA,42101,Pennsylvania,19142,"6401 Woodland Ave, Philadelphia, PA 19142",False,39.926497,-75.23341
4710 Rising Sun Ave,6384,Philadelphia,Philadelphia,"PNC Bank, National Association",FELTONVILLE BRANCH,11,PA,42101,Pennsylvania,19120,"4710 Rising Sun Ave, Philadelphia, PA 19120",False,40.022256,-75.125551
5900 N Broad St,6384,Philadelphia,Philadelphia,"PNC Bank, National Association",NORTH BROAD BRANCH,11,PA,42101,Pennsylvania,19141,"5900 N Broad St, Philadelphia, PA 19141",False,40.043103,-75.144213
1501 Chestnut St,3511,Philadelphia,Philadelphia,"Wells Fargo Bank, National Association",15TH & CHESTNUT BRANCH,11,PA,42101,Pennsylvania,19102,"1501 Chestnut St, Philadelphia, PA 19102",False,39.951283,-75.165868
1110 Central Dr,4993,Philadelphia,Neshoba,The Citizens National Bank of Meridian,PHILADELPHIA HWY 15 BRANCH,11,MS,28099,Mississippi,39350,"1110 Central Dr, Philadelphia, MS 39350",False,32.761041,-89.145921
7327 Frankford Ave,57957,Philadelphia,Philadelphia,"Citizens Bank, National Association",MAYFAIR TEESDALE BRANCH,11,PA,42101,Pennsylvania,19136,"7327 Frankford Ave, Philadelphia, PA 19136",False,40.03696,-75.03949
2401 E Venango St,29950,Philadelphia,Philadelphia,"Santander Bank, N.A.",PORT RICHMOND - ARAMINGO BRANCH,11,PA,42101,Pennsylvania,19134,"2401 E Venango St, Philadelphia, PA 19134",False,39.992941,-75.098803
521 W Main St,12204,Philadelphia,Neshoba,"The Citizens Bank of Philadelphia, Mississippi","The Citizens Bank of Philadelphia, Mississippi",11,MS,28099,Mississippi,39350,"521 W Main St, Philadelphia, MS 39350",False,32.770547,-89.109316
1727 Chestnut St,29627,Philadelphia,Philadelphia,Second Federal Savings and Loan Association of Philadelphia,Second Federal Savings and Loan Association of Philadelphia,11,PA,42101,Pennsylvania,19103,"1727 Chestnut St, Philadelphia, PA 19103",False,39.951857,-75.169744
320 E Girard Ave,33802,Philadelphia,Philadelphia,Tioga-Franklin Savings Bank,Tioga-Franklin Savings Bank,11,PA,42101,Pennsylvania,19125,"320 E Girard Ave, Philadelphia, PA 19125",False,39.969783,-75.130903
1510 Packer Ave,28836,Philadelphia,Philadelphia,United Savings Bank,United Savings Bank,11,PA,42101,Pennsylvania,19145,"1510 Packer Ave, Philadelphia, PA 19145",False,39.911903,-75.174318
1332 Point Breeze Ave,26647,Philadelphia,Philadelphia,Firstrust Savings Bank,POINT BREEZE AVENUE BRANCH,11,PA,42101,Pennsylvania,19146,"1332 Point Breeze Ave, Philadelphia, PA 19146",False,39.934563,-75.179722
1818 Market St,3510,Philadelphia,Philadelphia,"Bank of America, National Association",19TH AND MARKET BRANCH,11,PA,42101,Pennsylvania,19103,"1818 Market St, Philadelphia, PA 19103",False,39.952973,-75.171067
2227 S Broad St,3511,Philadelphia,Philadelphia,"Wells Fargo Bank, National Association",BROAD & WOLF S BRANCH,11,PA,42101,Pennsylvania,19148,"2227 S Broad St, Philadelphia, PA 19148",False,39.92198,-75.169803
1600 John F Kennedy Blvd,3510,Philadelphia,Philadelphia,"Bank of America, National Association",4 PENN CENTER BRANCH,11,PA,42101,Pennsylvania,19103,"1600 John F Kennedy Blvd, Philadelphia, PA 19103",False,39.95357,-75.16727
2514 Aramingo Ave,17838,Philadelphia,Philadelphia,"Wilmington Savings Fund Society, FSB",ARAMINGO AVENUE BRANCH,11,PA,42101,Pennsylvania,19125,"2514 Aramingo Ave, Philadelphia, PA 19125",False,39.97724,-75.119859
2001 Hamilton St,6384,Philadelphia,Philadelphia,"PNC Bank, National Association",CITY VIEW BRANCH,11,PA,42101,Pennsylvania,19130,"2001 Hamilton St, Philadelphia, PA 19130",False,39.9635,-75.17283
1760 Market St,57777,Philadelphia,Philadelphia,Meridian Bank,PHILADELPHIA BRANCH,11,PA,42101,Pennsylvania,19103,"1760 Market St, Philadelphia, PA 19103",False,39.952854,-75.170064
6509 Castor Ave,34759,Philadelphia,Philadelphia,Asian Bank,CASTOR AVENUE BRANCH,11,PA,42101,Pennsylvania,19149,"6509 Castor Ave, Philadelphia, PA 19149",False,40.040784,-75.07567
1100 Market St,628,Philadelphia,Philadelphia,"JPMorgan Chase Bank, National Association",11th St and Market St,11,PA,42101,Pennsylvania,19107,"1100 Market St, Philadelphia, PA 19107",False,39.951517,-75.1589
2444 S Broad St,7593,Philadelphia,Philadelphia,First Citizens Community Bank,South Philly Branch Office,11,PA,42101,Pennsylvania,19145,"2444 S Broad St, Philadelphia, PA 19145",False,39.919542,-75.171063
1111 S Broad St,7551,Philadelphia,Philadelphia,"Fulton Bank, National Association",1111 South Broad Branch,11,PA,42101,Pennsylvania,19147,"1111 S Broad St, Philadelphia, PA 19147",False,39.937332,-75.166433
8616 Germantown Ave,57957,Philadelphia,Philadelphia,"Citizens Bank, National Association",CHESTNUT HILL BRANCH,11,PA,42101,Pennsylvania,19118,"8616 Germantown Ave, Philadelphia, PA 19118",False,40.076859,-75.208333
134 S 34th St,57957,Philadelphia,Philadelphia,"Citizens Bank, National Association",UNIVERSITY CITY BRANCH,11,PA,42101,Pennsylvania,19104,"134 S 34th St, Philadelphia, PA 19104",False,39.953403,-75.192281
10168 Bustleton Ave,3511,Philadelphia,Philadelphia,"Wells Fargo Bank, National Association",BUSTLETON BRANCH,11,PA,42101,Pennsylvania,19116,"10168 Bustleton Ave, Philadelphia, PA 19116",False,40.107322,-75.02728
2904 Island Ave,3511,Philadelphia,Philadelphia,"Wells Fargo Bank, National Association",EASTWICK BRANCH,11,PA,42101,Pennsylvania,19153,"2904 Island Ave, Philadelphia, PA 19153",False,39.904032,-75.240541
11830 Bustleton Ave,6384,Philadelphia,Philadelphia,"PNC Bank, National Association",SOMERTON BRANCH,11,PA,42101,Pennsylvania,19116,"11830 Bustleton Ave, Philadelphia, PA 19116",False,40.120914,-75.017465
230 S Broad St,6384,Philadelphia,Philadelphia,"PNC Bank, National Association",BROAD & LOCUST BRANCH,11,PA,42101,Pennsylvania,19102,"230 S Broad St, Philadelphia, PA 19102",False,39.948448,-75.16509
1600 Market St,6384,Philadelphia,Philadelphia,"PNC Bank, National Association",1600 MARKET STREET BRANCH,11,PA,42101,Pennsylvania,19103,"1600 Market St, Philadelphia, PA 19103",False,39.953577,-75.169548
3202 Red Lion Rd,17838,Philadelphia,Philadelphia,"Wilmington Savings Fund Society, FSB",Academy Branch,11,PA,42101,Pennsylvania,19114,"3202 Red Lion Rd, Philadelphia, PA 19114",False,40.08094,-74.995252
4949 N Broad St,57957,Philadelphia,Philadelphia,"Citizens Bank, National Association",LOGAN BRANCH,11,PA,42101,Pennsylvania,19141,"4949 N Broad St, Philadelphia, PA 19141",False,40.028992,-75.146692
1515 Market St,57957,Philadelphia,Philadelphia,"Citizens Bank, National Association",PENN CENTER BRANCH,11,PA,42101,Pennsylvania,19102,"1515 Market St, Philadelphia, PA 19102",False,39.953307,-75.166097
6271 Frankford Ave,57957,Philadelphia,Philadelphia,"Citizens Bank, National Association",ROBBINS BRANCH,11,PA,42101,Pennsylvania,19135,"6271 Frankford Ave, Philadelphia, PA 19135",False,40.027564,-75.06023
2000 Market St,29950,Philadelphia,Philadelphia,"Santander Bank, N.A.",MARKET STREET BRANCH,11,PA,42101,Pennsylvania,19103,"2000 Market St, Philadelphia, PA 19103",False,39.953349,-75.173612
6855 Frankford Ave,6384,Philadelphia,Philadelphia,"PNC Bank, National Association",MAYFAIR BRANCH,11,PA,42101,Pennsylvania,19135,"6855 Frankford Ave, Philadelphia, PA 19135",False,40.032634,-75.048854
147 N 10th St,32257,Philadelphia,Philadelphia,Abacus Federal Savings Bank,PHILADELPHIA BRANCH,11,PA,42101,Pennsylvania,19107,"147 N 10th St, Philadelphia, PA 19107",False,39.954931,-75.155793
7300 Frankford Ave,27332,Philadelphia,Philadelphia,Republic Bank,FRANKFORD AVENUE,11,PA,42101,Pennsylvania,19136,"7300 Frankford Ave, Philadelphia, PA 19136",False,40.037616,-75.041685
3550 Market St,3511,Philadelphia,Philadelphia,"Wells Fargo Bank, National Association",36th & Market Branch,11,PA,42101,Pennsylvania,19104,"3550 Market St, Philadelphia, PA 19104",False,39.955999,-75.193894
1900 South St,28793,Philadelphia,Philadelphia,Sharon Bank,19TH AND SOUTH STREETS BRANCH,11,PA,42101,Pennsylvania,19146,"1900 South St, Philadelphia, PA 19146",False,39.944543,-75.173664
6137 Ridge Ave,11124,Philadelphia,Philadelphia,S&T Bank,ROXBOROUGH BRANCH,11,PA,42101,Pennsylvania,19128,"6137 Ridge Ave, Philadelphia, PA 19128",False,40.034652,-75.216083
206 Lewis Ave S,9356,Philadelphia,Neshoba,The Commercial Bank,PHILADELPHIA BRANCH,11,MS,28099,Mississippi,39350,"206 Lewis Ave S, Philadelphia, MS 39350",False,32.76924,-89.12217
1500 Market St,29950,Philadelphia,Philadelphia,"Santander Bank, N.A.",15TH AND  MARKET BRANCH,11,PA,42101,Pennsylvania,19102,"1500 Market St, Philadelphia, PA 19102",False,39.952689,-75.169062
2267 E Butler St,18409,Philadelphia,Philadelphia,"TD Bank, National Association",ARAMINGO BRANCH,11,PA,42101,Pennsylvania,19137,"2267 E Butler St, Philadelphia, PA 19137",False,39.99786,-75.093293
3583 Aramingo Ave,628,Philadelphia,Philadelphia,"JPMorgan Chase Bank, National Association",Aramingo Branch,11,PA,42101,Pennsylvania,19134,"3583 Aramingo Ave, Philadelphia, PA 19134",False,39.99286,-75.097467
1027 Arch St,57957,Philadelphia,Philadelphia,"Citizens Bank, National Association",ARCH STREET BRANCH,11,PA,42101,Pennsylvania,19107,"1027 Arch St, Philadelphia, PA 19107",False,39.95401,-75.157579
9996 Haldeman Ave,18409,Philadelphia,Philadelphia,"TD Bank, National Association",RED LION BRANCH,11,PA,42101,Pennsylvania,19115,"9996 Haldeman Ave, Philadelphia, PA 19115",False,40.097483,-75.019333
200 Lombard St,18409,Philadelphia,Philadelphia,"TD Bank, National Association",SOCIETY HILL BRANCH,11,PA,42101,Pennsylvania,19147,"200 Lombard St, Philadelphia, PA 19147",False,39.941984,-75.145835
3500 Aramingo Ave,57957,Philadelphia,Philadelphia,"Citizens Bank, National Association",PORT RICHMOND BRANCH,11,PA,42101,Pennsylvania,19134,"3500 Aramingo Ave, Philadelphia, PA 19134",False,39.993167,-75.098904
8000 Verree Rd,609,Philadelphia,Philadelphia,Tompkins Community Bank,FOX CHASE BRANCH,11,PA,42101,Pennsylvania,19111,"8000 Verree Rd, Philadelphia, PA 19111",False,40.073333,-75.075935
8345 Ridge Ave,57957,Philadelphia,Philadelphia,"Citizens Bank, National Association",ANDORRA BRANCH,11,PA,42101,Pennsylvania,19128,"8345 Ridge Ave, Philadelphia, PA 19128",False,40.061048,-75.238718
3244 N Broad St,6384,Philadelphia,Philadelphia,"PNC Bank, National Association",WESTMORELAND BRANCH,11,PA,42101,Pennsylvania,19140,"3244 N Broad St, Philadelphia, PA 19140",False,40.002665,-75.153032
6301 Woodland Ave,588,Philadelphia,Philadelphia,Manufacturers and Traders Trust Company,WOODLAND BRANCH,11,PA,42101,Pennsylvania,19142,"6301 Woodland Ave, Philadelphia, PA 19142",False,39.927488,-75.23206
21st & Passyunk Avenue,17838,Philadelphia,Philadelphia,"Wilmington Savings Fund Society, FSB",21ST & PASSYUNK AVENUE BRANCH,11,PA,42101,Pennsylvania,19145,"21st & Passyunk Avenue, Philadelphia, PA 19145",False,39.919009,-75.180351
1501 Locust St,3510,Philadelphia,Philadelphia,"Bank of America, National Association",15TH AND LOCUST BRANCH,11,PA,42101,Pennsylvania,19102,"1501 Locust St, Philadelphia, PA 19102",False,39.948634,-75.166352
1908 Liacouras Walk,6384,Philadelphia,Philadelphia,"PNC Bank, National Association",TEMPLE BRANCH,11,PA,42101,Pennsylvania,19122,"1908 Liacouras Walk, Philadelphia, PA 19122",False,39.98182,-75.15614
6052 Ridge Ave,57957,Philadelphia,Philadelphia,"Citizens Bank, National Association",ROXBOROUGH MAIN BRANCH,11,PA,42101,Pennsylvania,19128,"6052 Ridge Ave, Philadelphia, PA 19128",False,40.032553,-75.214533
12300 Academy Rd,6384,Philadelphia,Philadelphia,"PNC Bank, National Association",PARKWOOD MANOR BRANCH,11,PA,42101,Pennsylvania,19154,"12300 Academy Rd, Philadelphia, PA 19154",False,40.096477,-74.976455
101 E Olney Ave,3511,Philadelphia,Philadelphia,"Wells Fargo Bank, National Association",ONE & OLNEY BRANCH,11,PA,42101,Pennsylvania,19120,"101 E Olney Ave, Philadelphia, PA 19120",False,40.036419,-75.120666
6324 Stenton Ave,57957,Philadelphia,Philadelphia,"Citizens Bank, National Association",STENTON AVENUE BRANCH,11,PA,42101,Pennsylvania,19138,"6324 Stenton Ave, Philadelphia, PA 19138",False,40.059055,-75.164978
1400 E Passyunk Ave,3511,Philadelphia,Philadelphia,"Wells Fargo Bank, National Association",SOUTH PHILADELPHIA BRANCH,11,PA,42101,Pennsylvania,19147,"1400 E Passyunk Ave, Philadelphia, PA 19147",False,39.932246,-75.162232
6705 Rising Sun Ave,6384,Philadelphia,Philadelphia,"PNC Bank, National Association",LAWNCREST BRANCH,11,PA,42101,Pennsylvania,19111,"6705 Rising Sun Ave, Philadelphia, PA 19111",False,40.053272,-75.091495
510 N 6th St,6384,Philadelphia,Philadelphia,"PNC Bank, National Association",SPRING GARDEN BRANCH,11,PA,42101,Pennsylvania,19123,"510 N 6th St, Philadelphia, PA 19123",False,39.95983,-75.1486
4060 City Ave,6384,Philadelphia,Philadelphia,"PNC Bank, National Association",CITY AVENUE BRANCH,11,PA,42101,Pennsylvania,19131,"4060 City Ave, Philadelphia, PA 19131",False,40.006908,-75.213194
700 Adams Ave,3511,Philadelphia,Philadelphia,"Wells Fargo Bank, National Association",ADAMS BRANCH,11,PA,42101,Pennsylvania,19124,"700 Adams Ave, Philadelphia, PA 19124",False,40.032708,-75.1069
7918 Bustleton Ave,26647,Philadelphia,Philadelphia,Firstrust Savings Bank,PHILADELPHIA BRANCH,11,PA,42101,Pennsylvania,19152,"7918 Bustleton Ave, Philadelphia, PA 19152",False,40.058028,-75.053176
2401 Pennsylvania Ave,3511,Philadelphia,Philadelphia,"Wells Fargo Bank, National Association",PHILADELPHIAN BRANCH,11,PA,42101,Pennsylvania,19130,"2401 Pennsylvania Ave, Philadelphia, PA 19130",False,39.96672,-75.177883
2710 S 3rd St,3511,Philadelphia,Philadelphia,"Wells Fargo Bank, National Association",OREGON AVENUE BRANCH,11,PA,42101,Pennsylvania,19148,"2710 S 3rd St, Philadelphia, PA 19148",False,39.913727,-75.153241
6918 Ridge Ave,3511,Philadelphia,Philadelphia,"Wells Fargo Bank, National Association",RIDGE & PAOLI BRANCH,11,PA,42101,Pennsylvania,19128,"6918 Ridge Ave, Philadelphia, PA 19128",False,40.043381,-75.228345
538 Main St,4993,Philadelphia,Neshoba,The Citizens National Bank of Meridian,PHILADELPHIA BRANCH,11,MS,28099,Mississippi,39350,"538 Main St, Philadelphia, MS 39350",False,32.771299,-89.106685
7345 Bustleton Ave,3511,Philadelphia,Philadelphia,"Wells Fargo Bank, National Association",ROOSEVELT MALL BRANCH,11,PA,42101,Pennsylvania,19152,"7345 Bustleton Ave, Philadelphia, PA 19152",False,40.049124,-75.058064
3535 Market St,6384,Philadelphia,Philadelphia,"PNC Bank, National Association",UNIVERSITY CITY BRANCH,11,PA,42101,Pennsylvania,19104,"3535 Market St, Philadelphia, PA 19104",False,39.956386,-75.19378
2701 E Allegheny Ave,27799,Philadelphia,Philadelphia,William Penn Bank,ALLEGHENY AVENUE BRANCH,11,PA,42101,Pennsylvania,19134,"2701 E Allegheny Ave, Philadelphia, PA 19134",False,39.984195,-75.102123
1717 N 12th St,628,Philadelphia,Philadelphia,"JPMorgan Chase Bank, National Association",12th and Cecil B Moore,11,PA,42101,Pennsylvania,19122,"1717 N 12th St, Philadelphia, PA 19122",False,39.978455,-75.153537
2330 W Oregon Ave,3510,Philadelphia,Philadelphia,"Bank of America, National Association",QUARTERMASTER PLAZA BRANCH,11,PA,42101,Pennsylvania,19145,"2330 W Oregon Ave, Philadelphia, PA 19145",False,39.918889,-75.188146
1635 Market St,9846,Philadelphia,Philadelphia,Truist Bank,SEVEN PENN BRANCH,11,PA,42101,Pennsylvania,19103,"1635 Market St, Philadelphia, PA 19103",False,39.953295,-75.167987
1110 Chesnut Street,17838,Philadelphia,Philadelphia,"Wilmington Savings Fund Society, FSB",12TH & CHESNUT BRANCH,11,PA,42101,Pennsylvania,19107,"1110 Chesnut Street, Philadelphia, PA 19107",False,39.950057,-75.159177
920 South St,3510,Philadelphia,Philadelphia,"Bank of America, National Association",SOUTH STREET BRANCH,11,PA,42101,Pennsylvania,19147,"920 South St, Philadelphia, PA 19147",False,39.942538,-75.157796
3601 Market St,7759,Philadelphia,Philadelphia,Univest  Bank and Trust Co.,UNIVERSITY CITY BRANCH,11,PA,42101,Pennsylvania,19104,"3601 Market St, Philadelphia, PA 19104",False,39.95661,-75.194385
2946 Island Ave,6384,Philadelphia,Philadelphia,"PNC Bank, National Association",Island Avenue @ShopRite,11,PA,42101,Pennsylvania,19153,"2946 Island Ave, Philadelphia, PA 19153",False,39.901478,-75.24166
2077 Ridge Ave,29950,Philadelphia,Philadelphia,"Santander Bank, N.A.",Sharswood Branch,11,PA,42101,Pennsylvania,19121,"2077 Ridge Ave, Philadelphia, PA 19121",False,39.97792,-75.16877
801 Christian St,6384,Philadelphia,Philadelphia,"PNC Bank, National Association",8TH AND CHRISTIAN,11,PA,42101,Pennsylvania,19147,"801 Christian St, Philadelphia, PA 19147",False,39.938777,-75.156458
150 W Chelten Ave,6384,Philadelphia,Philadelphia,"PNC Bank, National Association",GERMANTOWN BRANCH,11,PA,42101,Pennsylvania,19144,"150 W Chelten Ave, Philadelphia, PA 19144",False,40.032541,-75.177562
1012 W Beacon St,12437,Philadelphia,Neshoba,Renasant Bank,PHILADELPHIA WESTSIDE BRANCH,11,MS,28099,Mississippi,39350,"1012 W Beacon St, Philadelphia, MS 39350",False,32.769167,-89.129042
Highways 15 And 19 North,12204,Philadelphia,Neshoba,"The Citizens Bank of Philadelphia, Mississippi",NORTH SIDE BRANCH,11,MS,28099,Mississippi,39350,"Highways 15 And 19 North, Philadelphia, MS 39350",False,32.770384,-89.115349
Highways 16 East And 486,12204,Philadelphia,Neshoba,"The Citizens Bank of Philadelphia, Mississippi",EAST SIDE BRANCH,11,MS,28099,Mississippi,39350,"Highways 16 East And 486, Philadelphia, MS 39350",False,32.770384,-89.115349
5458 Germantown Ave,3511,Philadelphia,Philadelphia,"Wells Fargo Bank, National Association",GERMANTOWN BRANCH,11,PA,42101,Pennsylvania,19144,"5458 Germantown Ave, Philadelphia, PA 19144",False,40.034147,-75.172719
4610 City Ave,3510,Philadelphia,Philadelphia,"Bank of America, National Association",CITY AVENUE BRANCH,11,PA,42101,Pennsylvania,19131,"4610 City Ave, Philadelphia, PA 19131",False,40.002408,-75.223229
2330 E York St,9846,Philadelphia,Philadelphia,Truist Bank,FISHTOWN BRANCH,11,PA,42101,Pennsylvania,19125,"2330 E York St, Philadelphia, PA 19125",False,39.97891,-75.125758
6635 Frankford Ave,18409,Philadelphia,Philadelphia,"TD Bank, National Association",FRANKFORD AVENUE BRANCH,11,PA,42101,Pennsylvania,19135,"6635 Frankford Ave, Philadelphia, PA 19135",False,40.031131,-75.053261
1636 Walnut St,628,Philadelphia,Philadelphia,"JPMorgan Chase Bank, National Association",Walnut Street and 16th Street,11,PA,42101,Pennsylvania,19103,"1636 Walnut St, Philadelphia, PA 19103",False,39.949754,-75.169008
1628 John F Kennedy Blvd,628,Philadelphia,Philadelphia,"JPMorgan Chase Bank, National Association",17th St and JFK Blvd,11,PA,42101,Pennsylvania,19103,"1628 John F Kennedy Blvd, Philadelphia, PA 19103",False,39.953714,-75.168003
9101 Roosevelt Blvd,3511,Philadelphia,Philadelphia,"Wells Fargo Bank, National Association",NORTHEAST BRANCH,11,PA,42101,Pennsylvania,19114,"9101 Roosevelt Blvd, Philadelphia, PA 19114",False,40.074171,-75.034159
9998 Frankford Ave,57957,Philadelphia,Philadelphia,"Citizens Bank, National Association",Torresdale Branch,11,PA,42101,Pennsylvania,19114,"9998 Frankford Ave, Philadelphia, PA 19114",False,40.064969,-74.982889
1837 E Allegheny Ave,3511,Philadelphia,Philadelphia,"Wells Fargo Bank, National Association",ALLEGHENY BRANCH,11,PA,42101,Pennsylvania,19134,"1837 E Allegheny Ave, Philadelphia, PA 19134",False,39.995643,-75.112338
2522 E Allegheny Ave,27385,Philadelphia,Philadelphia,Port Richmond Savings,Port Richmond Savings,11,PA,42101,Pennsylvania,19134,"2522 E Allegheny Ave, Philadelphia, PA 19134",False,39.986437,-75.104985
199 W Girard Ave,58371,Philadelphia,Philadelphia,Hyperion Bank,Hyperion Bank,11,PA,42101,Pennsylvania,19123,"199 W Girard Ave, Philadelphia, PA 19123",False,39.969665,-75.139257
1511 Walnut St,6384,Philadelphia,Philadelphia,"PNC Bank, National Association",1511 WALNUT STREET BRANCH,11,PA,42101,Pennsylvania,19102,"1511 Walnut St, Philadelphia, PA 19102",False,39.949847,-75.166472
8601 Germantown Ave,3510,Philadelphia,Philadelphia,"Bank of America, National Association",CHESTNUT HILL BRANCH,11,PA,42101,Pennsylvania,19118,"8601 Germantown Ave, Philadelphia, PA 19118",False,40.076919,-75.207215
6918 Brous Ave,17838,Philadelphia,Philadelphia,"Wilmington Savings Fund Society, FSB",TYSON & BROUS BRANCH,11,PA,42101,Pennsylvania,19149,"6918 Brous Ave, Philadelphia, PA 19149",False,40.038824,-75.056844
2005 Market St Ste 1,3511,Philadelphia,Philadelphia,"Wells Fargo Bank, National Association",COMMERCE SQUARE BRANCH,11,PA,42101,Pennsylvania,19103,"2005 Market St Ste 1, Philadelphia, PA 19103",False,39.954097,-75.174709
932 Chestnut St,3510,Philadelphia,Philadelphia,"Bank of America, National Association",10TH AND CHESTNUT BRANCH,11,PA,42101,Pennsylvania,19107,"932 Chestnut St, Philadelphia, PA 19107",False,39.949847,-75.156887
"1500 Jfk Boulevard, Two Penn Center Plaza",18409,Philadelphia,Philadelphia,"TD Bank, National Association",15TH & JFK BRANCH,11,PA,42101,Pennsylvania,19102,"1500 Jfk Boulevard, Two Penn Center Plaza, Philadelphia, PA 19102",False,39.953411,-75.165823
8580 Verree Rd,7593,Philadelphia,Philadelphia,First Citizens Community Bank,LAFAYETTE REDEEMER BRANCH,11,PA,42101,Pennsylvania,19111,"8580 Verree Rd, Philadelphia, PA 19111",False,40.083874,-75.066022
399 Market St,18409,Philadelphia,Philadelphia,"TD Bank, National Association",OLD CITY BRANCH,11,PA,42101,Pennsylvania,19106,"399 Market St, Philadelphia, PA 19106",False,39.95063,-75.146684
2103 Hamilton St,29950,Philadelphia,Philadelphia,"Santander Bank, N.A.",RODIN SQUARE,11,PA,42101,Pennsylvania,19130,"2103 Hamilton St, Philadelphia, PA 19130",False,39.96274,-75.173619
2118 Cottman Ave Spc 6,3510,Philadelphia,Philadelphia,"Bank of America, National Association",COTTMAN PLAZA BRANCH,11,PA,42101,Pennsylvania,19149,"2118 Cottman Ave Spc 6, Philadelphia, PA 19149",False,40.048991,-75.063314
4600 E Roosevelt Blvd,628,Philadelphia,Philadelphia,"JPMorgan Chase Bank, National Association",Northeast Tower Branch,11,PA,42101,Pennsylvania,19124,"4600 E Roosevelt Blvd, Philadelphia, PA 19124",False,40.032467,-75.101311
1500 Market St,28359,Philadelphia,Philadelphia,"OceanFirst Bank, National Association",Market Street Branch,11,PA,42101,Pennsylvania,19102,"1500 Market St, Philadelphia, PA 19102",False,39.952689,-75.169062
1148 Frankford Avenue,3511,Philadelphia,Philadelphia,"Wells Fargo Bank, National Association",FISHTOWN BRANCH,11,PA,42101,Pennsylvania,19123,"1148 Frankford Avenue, Philadelphia, PA 19123",False,39.968391,-75.134757
1945 E Passyunk Ave,28836,Philadelphia,Philadelphia,United Savings Bank,MARCONI BRANCH,11,PA,42101,Pennsylvania,19148,"1945 E Passyunk Ave, Philadelphia, PA 19148",False,39.92583,-75.16796
6425 Rising Sun Ave,3510,Philadelphia,Philadelphia,"Bank of America, National Association",LAWNDALE BRANCH,11,PA,42101,Pennsylvania,19111,"6425 Rising Sun Ave, Philadelphia, PA 19111",False,40.050059,-75.094731
1901 E Passyunk Ave,17838,Philadelphia,Philadelphia,"Wilmington Savings Fund Society, FSB",SAINT EDMOND'S BRANCH,11,PA,42101,Pennsylvania,19148,"1901 E Passyunk Ave, Philadelphia, PA 19148",False,39.926424,-75.167293
2200 Cottman Ave,6384,Philadelphia,Philadelphia,"PNC Bank, National Association",COTTMAN BRANCH,11,PA,42101,Pennsylvania,19149,"2200 Cottman Ave, Philadelphia, PA 19149",False,40.048823,-75.062335
9375 Bustleton Ave,588,Philadelphia,Philadelphia,Manufacturers and Traders Trust Company,BUSTLETON BRANCH,11,PA,42101,Pennsylvania,19115,"9375 Bustleton Ave, Philadelphia, PA 19115",False,40.08485,-75.03791
2653 South 5th St,18409,Philadelphia,Philadelphia,"TD Bank, National Association",WHITMAN BRANCH,11,PA,42101,Pennsylvania,19148,"2653 South 5th St, Philadelphia, PA 19148",False,39.914934,-75.156704
1601 Walnut St,27332,Philadelphia,Philadelphia,Republic Bank,WALNUT STREET BRANCH,11,PA,42101,Pennsylvania,19102,"1601 Walnut St, Philadelphia, PA 19102",False,39.949988,-75.167693
1601 Market St,27332,Philadelphia,Philadelphia,Republic Bank,1601 MARKET STREET,11,PA,42101,Pennsylvania,19103,"1601 Market St, Philadelphia, PA 19103",False,39.952933,-75.167418
4356 Frankford Ave,6384,Philadelphia,Philadelphia,"PNC Bank, National Association",FRANKFORD BRANCH,11,PA,42101,Pennsylvania,19124,"4356 Frankford Ave, Philadelphia, PA 19124",False,40.012507,-75.088574
2014 Cottman Ave,57957,Philadelphia,Philadelphia,"Citizens Bank, National Association",COTTMAN BRANCH,11,PA,42101,Pennsylvania,19149,"2014 Cottman Ave, Philadelphia, PA 19149",False,40.050564,-75.065845
195 Franklin Boulevard,57957,Philadelphia,Philadelphia,"Citizens Bank, National Association",FRANKLIN MILLS BRANCH,11,PA,42101,Pennsylvania,19154,"195 Franklin Boulevard, Philadelphia, PA 19154",False,40.083482,-74.996491
9808 Bustleton Ave,29950,Philadelphia,Philadelphia,"Santander Bank, N.A.",BUSTLETON BRANCH,11,PA,42101,Pennsylvania,19115,"9808 Bustleton Ave, Philadelphia, PA 19115",False,40.094655,-75.031306
9309 Krewstown Rd,26647,Philadelphia,Philadelphia,Firstrust Savings Bank,KREWSTOWN SHOPPING CENTER BRANCH,11,PA,42101,Pennsylvania,19115,"9309 Krewstown Rd, Philadelphia, PA 19115",False,40.085829,-75.045233
9869 Bustleton Ave,17534,Philadelphia,Philadelphia,KeyBank National Association,BUSTLETON BRANCH,11,PA,42101,Pennsylvania,19115,"9869 Bustleton Ave, Philadelphia, PA 19115",False,40.092625,-75.030954
2646 E Allegheny Ave,7551,Philadelphia,Philadelphia,"Fulton Bank, National Association",EAST ALLEGHENY  AVENUE BRANCH,11,PA,42101,Pennsylvania,19134,"2646 E Allegheny Ave, Philadelphia, PA 19134",False,39.984374,-75.103001
1701 John F Kennedy Blvd,7551,Philadelphia,Philadelphia,"Fulton Bank, National Association",17th and Arch Branch,11,PA,42101,Pennsylvania,19103,"1701 John F Kennedy Blvd, Philadelphia, PA 19103",False,39.954711,-75.168606
2700 W Girard Ave,7551,Philadelphia,Philadelphia,"Fulton Bank, National Association",Brewerytown Branch,11,PA,42101,Pennsylvania,19130,"2700 W Girard Ave, Philadelphia, PA 19130",False,39.973974,-75.180646
3606 Lancaster Ave,9846,Philadelphia,Philadelphia,Truist Bank,Paloma University City Branch,11,PA,42101,Pennsylvania,19104,"3606 Lancaster Ave, Philadelphia, PA 19104",False,39.958572,-75.19403
15 S 52nd St,628,Philadelphia,Philadelphia,"JPMorgan Chase Bank, National Association",West Philadelphia Branch,11,PA,42101,Pennsylvania,19139,"15 S 52nd St, Philadelphia, PA 19139",False,39.959515,-75.224591
"4101 Market Street, Suite",7551,Philadelphia,Philadelphia,"Fulton Bank, National Association",University Place Branch,11,PA,42101,Pennsylvania,19104,"4101 Market Street, Suite, Philadelphia, PA 19104",False,39.957926,-75.205683
535 East Main Street,11813,Philadelphia,Neshoba,Cadence Bank,Philadelphia Branch,11,MS,28099,Mississippi,39350,"535 East Main Street, Philadelphia, MS 39350",False,32.770613,-89.107369
3925 Walnut St,3510,Philadelphia,Philadelphia,"Bank of America, National Association",UNIVERSITY CITY BRANCH,11,PA,42101,Pennsylvania,19104,"3925 Walnut St, Philadelphia, PA 19104",False,39.95423,-75.201337
400 W Allegheny Ave,29950,Philadelphia,Philadelphia,"Santander Bank, N.A.",PLAZA ALLEGHENY BRANCH,11,PA,42101,Pennsylvania,19133,"400 W Allegheny Ave, Philadelphia, PA 19133",False,39.99897,-75.136846
2815 Grays Ferry Ave,628,Philadelphia,Philadelphia,"JPMorgan Chase Bank, National Association",Grays Ferry,11,PA,42101,Pennsylvania,19146,"2815 Grays Ferry Ave, Philadelphia, PA 19146",False,39.939849,-75.191907
77 Main Street,13748,Philadelphia,Jefferson,The Upstate National Bank,PHILADELPHIA BRANCH,11,NY,36045,New York,13673,"77 Main Street, Philadelphia, NY 13673",False,44.158089,-75.706096
6500 Castor Ave,588,Philadelphia,Philadelphia,Manufacturers and Traders Trust Company,CASTOR BRANCH,11,PA,42101,Pennsylvania,19149,"6500 Castor Ave, Philadelphia, PA 19149",False,40.041088,-75.076261
900 South Street,57957,Philadelphia,Philadelphia,"Citizens Bank, National Association",Eighth & Walnut Branch,11,PA,42101,Pennsylvania,19147,"900 South Street, Philadelphia, PA 19147",False,39.942533,-75.157178
3617 Midvale Ave,9846,Philadelphia,Philadelphia,Truist Bank,PHILADELPHIA EAST FALLS BRANCH,11,PA,42101,Pennsylvania,19129,"3617 Midvale Ave, Philadelphia, PA 19129",False,40.012347,-75.192921
732 S 10th St,28836,Philadelphia,Philadelphia,United Savings Bank,10TH STREET BRANCH,11,PA,42101,Pennsylvania,19147,"732 S 10th St, Philadelphia, PA 19147",False,39.94143,-75.15868
1841 E Allegheny Ave,3510,Philadelphia,Philadelphia,"Bank of America, National Association",KENSINGTON BRANCH,11,PA,42101,Pennsylvania,19134,"1841 E Allegheny Ave, Philadelphia, PA 19134",False,39.99558,-75.112169
1246 E Hunting Park Ave,3511,Philadelphia,Philadelphia,"Wells Fargo Bank, National Association",JUNIATA BRANCH,11,PA,42101,Pennsylvania,19124,"1246 E Hunting Park Ave, Philadelphia, PA 19124",False,40.010554,-75.102496
1900 Market St,18409,Philadelphia,Philadelphia,"TD Bank, National Association",CENTER CITY BRANCH,11,PA,42101,Pennsylvania,19103,"1900 Market St, Philadelphia, PA 19103",False,39.953109,-75.172448
1610 Spruce St,34888,Philadelphia,Philadelphia,Parke Bank,SPRUCE STREET BRANCH,11,PA,42101,Pennsylvania,19103,"1610 Spruce St, Philadelphia, PA 19103",False,39.947289,-75.168552
1801 Market St,6384,Philadelphia,Philadelphia,"PNC Bank, National Association",TEN PENN CENTER BRANCH,11,PA,42101,Pennsylvania,19103,"1801 Market St, Philadelphia, PA 19103",False,39.953614,-75.169522
921 Arch St,58513,Philadelphia,Philadelphia,The Bank of Princeton,ARCH STREET BRANCH,11,PA,42101,Pennsylvania,19107,"921 Arch St, Philadelphia, PA 19107",False,39.95368,-75.155663
1616 Walnut St,29950,Philadelphia,Philadelphia,"Santander Bank, N.A.",RITTENHOUSE BRANCH,11,PA,42101,Pennsylvania,19103,"1616 Walnut St, Philadelphia, PA 19103",False,39.949736,-75.168597
6304 Roosevelt Blvd,18409,Philadelphia,Philadelphia,"TD Bank, National Association",PHILADELPHIA LEVICK STREET BRANCH,11,PA,42101,Pennsylvania,19149,"6304 Roosevelt Blvd, Philadelphia, PA 19149",False,40.03546,-75.071801
123 Chestnut St,628,Philadelphia,Philadelphia,"JPMorgan Chase Bank, National Association",2nd St and Chestnut St,11,PA,42101,Pennsylvania,19106,"123 Chestnut St, Philadelphia, PA 19106",False,39.948552,-75.143701
2843 N Broad St,3511,Philadelphia,Philadelphia,"Wells Fargo Bank, National Association",GLENWOOD BRANCH,11,PA,42101,Pennsylvania,19132,"2843 N Broad St, Philadelphia, PA 19132",False,39.99638,-75.15395
6633 Roosevelt Blvd,9846,Philadelphia,Philadelphia,Truist Bank,PHILADELPHIA MAYFAIR BRANCH,11,PA,42101,Pennsylvania,19149,"6633 Roosevelt Blvd, Philadelphia, PA 19149",False,40.036524,-75.062416
2133 Spring Garden St,7551,Philadelphia,Philadelphia,"Fulton Bank, National Association",SPRING GARDEN STREET BRANCH,11,PA,42101,Pennsylvania,19130,"2133 Spring Garden St, Philadelphia, PA 19130",False,39.964354,-75.174204
1722 S Broad St,7551,Philadelphia,Philadelphia,"Fulton Bank, National Association",SOUTH BROAD BRANCH,11,PA,42101,Pennsylvania,19145,"1722 S Broad St, Philadelphia, PA 19145",False,39.928583,-75.169055
6537 Castor Ave,57957,Philadelphia,Philadelphia,"Citizens Bank, National Association",CASTOR AVENUE BRANCH,11,PA,42101,Pennsylvania,19149,"6537 Castor Ave, Philadelphia, PA 19149",False,40.041469,-75.075085
1849 Walnut St,6384,Philadelphia,Philadelphia,"PNC Bank, National Association",RITTENHOUSE BRANCH,11,PA,42101,Pennsylvania,19103,"1849 Walnut St, Philadelphia, PA 19103",False,39.950613,-75.171995
123 S Broad St,3511,Philadelphia,Philadelphia,"Wells Fargo Bank, National Association",MAIN BANKING BRANCH,11,PA,42101,Pennsylvania,19109,"123 S Broad St, Philadelphia, PA 19109",False,39.949486,-75.164083
1001 E Erie Ave,6384,Philadelphia,Philadelphia,"PNC Bank, National Association",I & ERIE STREET BRANCH,11,PA,42101,Pennsylvania,19124,"1001 E Erie Ave, Philadelphia, PA 19124",False,40.005604,-75.108976
150 S Broad St,57957,Philadelphia,Philadelphia,"Citizens Bank, National Association",1417 Walnut Street Branch,11,PA,42101,Pennsylvania,19102,"150 S Broad St, Philadelphia, PA 19102",False,39.949603,-75.164594
1575 N 52nd St,3511,Philadelphia,Philadelphia,"Wells Fargo Bank, National Association",PARKWEST TOWN CENTER BRANCH,11,PA,42101,Pennsylvania,19131,"1575 N 52nd St, Philadelphia, PA 19131",False,39.97817,-75.22427
7782 Crittenden St,3511,Philadelphia,Philadelphia,"Wells Fargo Bank, National Association",MARKET SQUARE BRANCH,11,PA,42101,Pennsylvania,19118,"7782 Crittenden St, Philadelphia, PA 19118",False,40.073872,-75.195015
1544 Packer Ave,6384,Philadelphia,Philadelphia,"PNC Bank, National Association",PACKER PARK BRANCH,11,PA,42101,Pennsylvania,19145,"1544 Packer Ave, Philadelphia, PA 19145",False,39.911373,-75.175553
330 W Oregon Ave,57957,Philadelphia,Philadelphia,"Citizens Bank, National Association",WHITMAN PLAZA BRANCH,11,PA,42101,Pennsylvania,19148,"330 W Oregon Ave, Philadelphia, PA 19148",False,39.913053,-75.154753
1634 Walnut St,3511,Philadelphia,Philadelphia,"Wells Fargo Bank, National Association",Rittenhouse Branch,11,PA,42101,Pennsylvania,19103,"1634 Walnut St, Philadelphia, PA 19103",False,39.949713,-75.168938
50 S 16th St,27332,Philadelphia,Philadelphia,Republic Bank,Republic Bank,11,PA,42101,Pennsylvania,19102,"50 S 16th St, Philadelphia, PA 19102",False,39.95467,-75.169145
1501 N Broad St,33568,Philadelphia,Philadelphia,United Bank of Philadelphia,United Bank of Philadelphia,11,PA,42101,Pennsylvania,19122,"1501 N Broad St, Philadelphia, PA 19122",False,39.976448,-75.157443
1760 Market St Fl 2,35075,Philadelphia,Philadelphia,The Philadelphia Trust Company,The Philadelphia Trust Company,11,PA,42101,Pennsylvania,19103,"1760 Market St Fl 2, Philadelphia, PA 19103",False,39.952872,-75.169901
121 S Broad St,18409,Philadelphia,Philadelphia,"TD Bank, National Association",BROAD AND SANSOM BRANCH,11,PA,42101,Pennsylvania,19107,"121 S Broad St, Philadelphia, PA 19107",False,39.950235,-75.163706
1845 Walnut St Ste 125,9846,Philadelphia,Philadelphia,Truist Bank,RITTENHOUSE SQUARE BRANCH,11,PA,42101,Pennsylvania,19103,"1845 Walnut St Ste 125, Philadelphia, PA 19103",False,39.950626,-75.171553
2231 Cottman Ave,18409,Philadelphia,Philadelphia,"TD Bank, National Association",COTTMAN & BUSTLETON BRANCH,11,PA,42101,Pennsylvania,19149,"2231 Cottman Ave, Philadelphia, PA 19149",False,40.048351,-75.060149
5501 Ridge Ave,18409,Philadelphia,Philadelphia,"TD Bank, National Association",ROXBOROUGH BRANCH,11,PA,42101,Pennsylvania,19128,"5501 Ridge Ave, Philadelphia, PA 19128",False,40.024288,-75.207539
1515 Market St,26647,Philadelphia,Philadelphia,Firstrust Savings Bank,SIXTEEENTH AND KENNEDY BRANCH,11,PA,42101,Pennsylvania,19102,"1515 Market St, Philadelphia, PA 19102",False,39.953307,-75.166097
1901 Walnut St,26647,Philadelphia,Philadelphia,Firstrust Savings Bank,WALNUT STREET BRANCH,11,PA,42101,Pennsylvania,19103,"1901 Walnut St, Philadelphia, PA 19103",False,39.950612,-75.172541
9501 Bustleton Ave,3510,Philadelphia,Philadelphia,"Bank of America, National Association",BUSTLETON BRANCH,11,PA,42101,Pennsylvania,19115,"9501 Bustleton Ave, Philadelphia, PA 19115",False,40.085487,-75.036937
1002 South St,6384,Philadelphia,Philadelphia,"PNC Bank, National Association",10TH & SOUTH BRANCH,11,PA,42101,Pennsylvania,19147,"1002 South St, Philadelphia, PA 19147",False,39.942726,-75.158875
1032 Arch St,34888,Philadelphia,Philadelphia,Parke Bank,ARCH STREET BRANCH,11,PA,42101,Pennsylvania,19107,"1032 Arch St, Philadelphia, PA 19107",False,39.953467,-75.157665
701 W Lehigh Ave,18409,Philadelphia,Philadelphia,"TD Bank, National Association",PHILADELPHIA LEHIGH BRANCH,11,PA,42101,Pennsylvania,19133,"701 W Lehigh Ave, Philadelphia, PA 19133",False,39.992946,-75.144703
2400 Market St Ste 239,913,Philadelphia,Philadelphia,The Northern Trust Company,PHILADELPHIA BRANCH,11,PA,42101,Pennsylvania,19103,"2400 Market St Ste 239, Philadelphia, PA 19103",False,39.953695,-75.179358
1726 Walnut St,18409,Philadelphia,Philadelphia,"TD Bank, National Association",RITTENHOUSE SQUARE BRANCH,11,PA,42101,Pennsylvania,19103,"1726 Walnut St, Philadelphia, PA 19103",False,39.949946,-75.170468
401 W Tabor Rd,6384,Philadelphia,Philadelphia,"PNC Bank, National Association",TABOR ROAD BRANCH,11,PA,42101,Pennsylvania,19120,"401 W Tabor Rd, Philadelphia, PA 19120",False,40.034697,-75.129338
238a Moore St,7551,Philadelphia,Philadelphia,"Fulton Bank, National Association",MOORE AT MOYAMENSING AVE BRANCH,11,PA,42101,Pennsylvania,19148,"238a Moore St, Philadelphia, PA 19148",False,39.92554,-75.151027
401 Rhawn St,7759,Philadelphia,Philadelphia,Univest  Bank and Trust Co.,PHILADELPHIA BRANCH,11,PA,42101,Pennsylvania,19111,"401 Rhawn St, Philadelphia, PA 19111",False,40.077246,-75.0848
200 S 40th St,6384,Philadelphia,Philadelphia,"PNC Bank, National Association",40TH STREET BRANCH,11,PA,42101,Pennsylvania,19104,"200 S 40th St, Philadelphia, PA 19104",False,39.9537,-75.202981
5873 Ridge Ave,17838,Philadelphia,Philadelphia,"Wilmington Savings Fund Society, FSB",RIDGE AVENUE BRANCH,11,PA,42101,Pennsylvania,19128,"5873 Ridge Ave, Philadelphia, PA 19128",False,40.029912,-75.210855
1700 Walnut St,57957,Philadelphia,Philadelphia,"Citizens Bank, National Association",RITTENHOUSE BRANCH,11,PA,42101,Pennsylvania,19103,"1700 Walnut St, Philadelphia, PA 19103",False,39.949732,-75.169309
4001 Chestnut St,628,Philadelphia,Philadelphia,"JPMorgan Chase Bank, National Association",40th and Chestnut Branch,11,PA,42101,Pennsylvania,19104,"4001 Chestnut St, Philadelphia, PA 19104",False,39.955915,-75.202374
990 Spring Garden St,7593,Philadelphia,Philadelphia,First Citizens Community Bank,Center City Branch Office,11,PA,42101,Pennsylvania,19123,"990 Spring Garden St, Philadelphia, PA 19123",False,39.961536,-75.154412
248 Market St,57957,Philadelphia,Philadelphia,"Citizens Bank, National Association",Old City Branch,11,PA,42101,Pennsylvania,19106,"248 Market St, Philadelphia, PA 19106",False,39.949956,-75.145511
30 S 15th St,33568,Philadelphia,Philadelphia,United Bank of Philadelphia,Former Main Office Branch,11,PA,42101,Pennsylvania,19102,"30 S 15th St, Philadelphia, PA 19102",False,39.95156,-75.165819
2900 Comly Rd,27799,Philadelphia,Philadelphia,William Penn Bank,Comly Road Branch,11,PA,42101,Pennsylvania,19154,"2900 Comly Rd, Philadelphia, PA 19154",False,40.098106,-74.995902
12051 Knights Rd,9846,Philadelphia,Philadelphia,Truist Bank,Woodhaven Branch,11,PA,42101,Pennsylvania,19154,"12051 Knights Rd, Philadelphia, PA 19154",False,40.085845,-74.972083
4625 Frankford Ave,9846,Philadelphia,Philadelphia,Truist Bank,FRANKFORD BRANCH,11,PA,42101,Pennsylvania,19124,"4625 Frankford Ave, Philadelphia, PA 19124",False,40.01517,-75.084774
8000 Frankford Ave,7551,Philadelphia,Philadelphia,"Fulton Bank, National Association",FRANKFORD AVE BRANCH,11,PA,42101,Pennsylvania,19136,"8000 Frankford Ave, Philadelphia, PA 19136",False,40.041612,-75.028179
117 S 18th St,588,Philadelphia,Philadelphia,Manufacturers and Traders Trust Company,RITTENHOUSE SQUARE BRANCH,11,PA,42101,Pennsylvania,19103,"117 S 18th St, Philadelphia, PA 19103",False,39.951092,-75.170253
1220 N Broad St,7551,Philadelphia,Philadelphia,"Fulton Bank, National Association",Broad and Stiles Branch,11,PA,42101,Pennsylvania,19121,"1220 N Broad St, Philadelphia, PA 19121",False,39.972654,-75.15961
1000 S Broad St,628,Philadelphia,Philadelphia,"JPMorgan Chase Bank, National Association",Broad Street and Washington Avenue,11,PA,42101,Pennsylvania,19146,"1000 S Broad St, Philadelphia, PA 19146",False,39.938373,-75.167316
2900 Island Ave,628,Philadelphia,Philadelphia,"JPMorgan Chase Bank, National Association",Penrose Plaza Branch,11,PA,42101,Pennsylvania,19153,"2900 Island Ave, Philadelphia, PA 19153",False,39.903306,-75.240659
1546 Frankford Ave,57957,Philadelphia,Philadelphia,"Citizens Bank, National Association",Fishtown Branch,11,PA,42101,Pennsylvania,19125,"1546 Frankford Ave, Philadelphia, PA 19125",False,39.974073,-75.133706
701 E Cathedral Rd,628,Philadelphia,Philadelphia,"JPMorgan Chase Bank, National Association",Andorra Branch,11,PA,42101,Pennsylvania,19128,"701 E Cathedral Rd, Philadelphia, PA 19128",False,40.064351,-75.236789
926 South St,628,Philadelphia,Philadelphia,"JPMorgan Chase Bank, National Association",South Philadelphia Branch,11,PA,42101,Pennsylvania,19147,"926 South St, Philadelphia, PA 19147",False,39.942548,-75.157984
1835 Market St,57957,Philadelphia,Philadelphia,"Citizens Bank, National Association",1835 Market Street Branch,11,PA,42101,Pennsylvania,19103,"1835 Market St, Philadelphia, PA 19103",False,39.953428,-75.171201
9 W Evergreen Ave,9846,Philadelphia,Philadelphia,Truist Bank,CHESTNUT HILL BRANCH,11,PA,42101,Pennsylvania,19118,"9 W Evergreen Ave, Philadelphia, PA 19118",False,40.076136,-75.208311
1834 W Oregon Ave,7551,Philadelphia,Philadelphia,"Fulton Bank, National Association",Oregon Avenue Branch,11,PA,42101,Pennsylvania,19145,"1834 W Oregon Ave, Philadelphia, PA 19145",False,39.917494,-75.179151
534 Main St,12368,Philadelphia,Neshoba,Regions Bank,PHILADELPHIA BRANCH,11,MS,28099,Mississippi,39350,"534 Main St, Philadelphia, MS 39350",False,32.771189,-89.107323
7226 Germantown Ave,7759,Philadelphia,Philadelphia,Univest  Bank and Trust Co.,MOUNT AIRY BRANCH,11,PA,42101,Pennsylvania,19119,"7226 Germantown Ave, Philadelphia, PA 19119",False,40.060647,-75.191878
1411 Rhawn St,17838,Philadelphia,Philadelphia,"Wilmington Savings Fund Society, FSB",FOX CHASE BRANCH,11,PA,42101,Pennsylvania,19111,"1411 Rhawn St, Philadelphia, PA 19111",False,40.068308,-75.065801
4341 Ridge Ave,11124,Philadelphia,Philadelphia,S&T Bank,EAST FALLS BR,11,PA,42101,Pennsylvania,19129,"4341 Ridge Ave, Philadelphia, PA 19129",False,40.010347,-75.196948
1025 W Lehigh Ave,57957,Philadelphia,Philadelphia,"Citizens Bank, National Association",LEHIGH AVENUE BRANCH,11,PA,42101,Pennsylvania,19133,"1025 W Lehigh Ave, Philadelphia, PA 19133",False,39.99352,-75.148967
2540 S 24th St,57957,Philadelphia,Philadelphia,"Citizens Bank, National Association",OREGON AVENUE BRANCH,11,PA,42101,Pennsylvania,19145,"2540 S 24th St, Philadelphia, PA 19145",False,39.920482,-75.187873
2900 Island Ave,57957,Philadelphia,Philadelphia,"Citizens Bank, National Association",PENROSE PLAZA BRANCH,11,PA,42101,Pennsylvania,19153,"2900 Island Ave, Philadelphia, PA 19153",False,39.903306,-75.240659
3735 Walnut St,18409,Philadelphia,Philadelphia,"TD Bank, National Association",UNIVERSITY CITY BRANCH,11,PA,42101,Pennsylvania,19104,"3735 Walnut St, Philadelphia, PA 19104",False,39.953772,-75.197983
3400 Aramingo Ave,3511,Philadelphia,Philadelphia,"Wells Fargo Bank, National Association",ARAMINGO BRANCH,11,PA,42101,Pennsylvania,19134,"3400 Aramingo Ave, Philadelphia, PA 19134",False,39.99172,-75.101294
340 S 2nd St,3511,Philadelphia,Philadelphia,"Wells Fargo Bank, National Association",PINE STREET BRANCH,11,PA,42101,Pennsylvania,19106,"340 S 2nd St, Philadelphia, PA 19106",False,39.943259,-75.145429
1111 Market St,6384,Philadelphia,Philadelphia,"PNC Bank, National Association",CONVENTION CENTER BRANCH,11,PA,42101,Pennsylvania,19107,"1111 Market St, Philadelphia, PA 19107",False,39.952124,-75.159136
470 W Cheltenham Ave,58513,Philadelphia,Philadelphia,The Bank of Princeton,CHELTENHAM BRANCH,11,PA,42101,Pennsylvania,19126,"470 W Cheltenham Ave, Philadelphia, PA 19126",False,40.055121,-75.126115
6420 Frankford Ave,3511,Philadelphia,Philadelphia,"Wells Fargo Bank, National Association",HELLERMAN BRANCH,11,PA,42101,Pennsylvania,19135,"6420 Frankford Ave, Philadelphia, PA 19135",False,40.030279,-75.058551
7121 Frankford Ave,588,Philadelphia,Philadelphia,Manufacturers and Traders Trust Company,MAYFAIR BRANCH,11,PA,42101,Pennsylvania,19135,"7121 Frankford Ave, Philadelphia, PA 19135",False,40.034913,-75.04381
101 E Olney Ave,29950,Philadelphia,Philadelphia,"Santander Bank, N.A.",ONE & OLNEY SQUARE BRANCH,11,PA,42101,Pennsylvania,19120,"101 E Olney Ave, Philadelphia, PA 19120",False,40.036419,-75.120666
10650 Bultleton Ave,57957,Philadelphia,Philadelphia,"Citizens Bank, National Association",BUSTLETON BRANCH,11,PA,42101,Pennsylvania,19116,"10650 Bultleton Ave, Philadelphia, PA 19116",False,40.109705,-75.025984
3921 N 5th St,57957,Philadelphia,Philadelphia,"Citizens Bank, National Association",Hunting Park Branch,11,PA,42101,Pennsylvania,19140,"3921 N 5th St, Philadelphia, PA 19140",False,40.011642,-75.135767
5607 Vine St,57957,Philadelphia,Philadelphia,"Citizens Bank, National Association",HADDINGTON BRANCH,11,PA,42101,Pennsylvania,19139,"5607 Vine St, Philadelphia, PA 19139",False,39.966871,-75.233229
2401 Welsh Rd,6384,Philadelphia,Philadelphia,"PNC Bank, National Association",WELSH BRANCH,11,PA,42101,Pennsylvania,19114,"2401 Welsh Rd, Philadelphia, PA 19114",False,40.072468,-75.031257
9246 Krewstown Rd,6384,Philadelphia,Philadelphia,"PNC Bank, National Association",KREWSTOWN BRANCH,11,PA,42101,Pennsylvania,19115,"9246 Krewstown Rd, Philadelphia, PA 19115",False,40.086018,-75.046818
1600 Chestnut St,17838,Philadelphia,Philadelphia,"Wilmington Savings Fund Society, FSB",1600 CHESTNUT STREET BRANCH,11,PA,42101,Pennsylvania,19103,"1600 Chestnut St, Philadelphia, PA 19103",False,39.9511,-75.167392
2001 S Broad St,57957,Philadelphia,Philadelphia,"Citizens Bank, National Association",MCKEAN BRANCH,11,PA,42101,Pennsylvania,19148,"2001 S Broad St, Philadelphia, PA 19148",False,39.925415,-75.169012
1700 Market St,3511,Philadelphia,Philadelphia,"Wells Fargo Bank, National Association",MARKET STREET BRANCH,11,PA,42101,Pennsylvania,19103,"1700 Market St, Philadelphia, PA 19103",False,39.953098,-75.16878
5703 Germantown Ave,57957,Philadelphia,Philadelphia,"Citizens Bank, National Association",Germantown Branch,11,PA,42101,Pennsylvania,19144,"5703 Germantown Ave, Philadelphia, PA 19144",False,40.036113,-75.174768
490 N Broad St,57957,Philadelphia,Philadelphia,"Citizens Bank, National Association",15th and Spring Garden Branch,11,PA,42101,Pennsylvania,19130,"490 N Broad St, Philadelphia, PA 19130",False,39.962312,-75.162361
180 W Girard Ave,17838,Philadelphia,Philadelphia,"Wilmington Savings Fund Society, FSB",NORTHERN LIBERTIES,11,PA,42101,Pennsylvania,19123,"180 W Girard Ave, Philadelphia, PA 19123",False,39.968686,-75.139172
8340 Germantown Ave,6384,Philadelphia,Philadelphia,"PNC Bank, National Association",CHESTNUT HILL BRANCH,11,PA,42101,Pennsylvania,19118,"8340 Germantown Ave, Philadelphia, PA 19118",False,40.074851,-75.204861
726 Market St,57957,Philadelphia,Philadelphia,"Citizens Bank, National Association",7th & Market Branch,11,PA,42101,Pennsylvania,19106,"726 Market St, Philadelphia, PA 19106",False,39.950739,-75.153178
601 W Erie Ave,3511,Philadelphia,Philadelphia,"Wells Fargo Bank, National Association",NICETOWN BRANCH,11,PA,42101,Pennsylvania,19140,"601 W Erie Ave, Philadelphia, PA 19140",False,40.007919,-75.138949
2701 S 10th St,29950,Philadelphia,Philadelphia,"Santander Bank, N.A.",STADIUM BRANCH,11,PA,42101,Pennsylvania,19148,"2701 S 10th St, Philadelphia, PA 19148",False,39.91556,-75.16433
1023 Race St,34759,Philadelphia,Philadelphia,Asian Bank,Asian Bank,11,PA,42101,Pennsylvania,19107,"1023 Race St, Philadelphia, PA 19107",False,39.955673,-75.156804
3802 Chestnut St,29950,Philadelphia,Philadelphia,"Santander Bank, N.A.",UPENN,11,PA,42101,Pennsylvania,19104,"3802 Chestnut St, Philadelphia, PA 19104",False,39.954782,-75.198752
1600 N Broad St,3510,Philadelphia,Philadelphia,"Bank of America, National Association",TEMPLE BRANCH,11,PA,42101,Pennsylvania,19121,"1600 N Broad St, Philadelphia, PA 19121",False,39.977913,-75.158457
1502 Frankford Ave,628,Philadelphia,Philadelphia,"JPMorgan Chase Bank, National Association",Fishtown Branch,11,PA,42101,Pennsylvania,19125,"1502 Frankford Ave, Philadelphia, PA 19125",False,39.973168,-75.134095
9353 Krewstown Rd,57957,Philadelphia,Philadelphia,"Citizens Bank, National Association",KREWSTOWN BRANCH,11,PA,42101,Pennsylvania,19115,"9353 Krewstown Rd, Philadelphia, PA 19115",False,40.086939,-75.04514
1501 N Broad St,57957,Philadelphia,Philadelphia,"Citizens Bank, National Association",PROGRESS PLAZA BRANCH,11,PA,42101,Pennsylvania,19122,"1501 N Broad St, Philadelphia, PA 19122",False,39.976448,-75.157443
1642 Fairmount Ave,7759,Philadelphia,Philadelphia,Univest  Bank and Trust Co.,FAIRMOUNT BRANCH,11,PA,42101,Pennsylvania,19130,"1642 Fairmount Ave, Philadelphia, PA 19130",False,39.966898,-75.165184
4952 Parkside Ave,29950,Philadelphia,Philadelphia,"Santander Bank, N.A.",Parkside,11,PA,42101,Pennsylvania,19131,"4952 Parkside Ave, Philadelphia, PA 19131",False,39.979467,-75.219246
